start=new Date('2021-08-27T00:00:00.000Z').valueOf();
sats=[{"COUNTRY_CODE":"US","OBJECT_NAME":"STARLINK-2502","INCLINATION":"53.0559","REV_AT_EPOCH":"1841","BSTAR":"0.00011761000000","OBJECT_ID":"2021-036BD","TIME_SYSTEM":"UTC","RA_OF_ASC_NODE":"336.3442","PERIAPSIS":"546.273","CENTER_NAME":"EARTH","MEAN_MOTION":"15.06394926","NORAD_CAT_ID":"48327","ELEMENT_SET_NO":"999","MEAN_MOTION_DDOT":"0.0000000000000","MEAN_ANOMALY":"223.2107","GP_ID":"183475561","SITE":"AFETR","FILE":"3103463","ECCENTRICITY":"0.00013810","ARG_OF_PERICENTER":"136.8990","DECAY_DATE":null,"OBJECT_TYPE":"PAYLOAD","EPOCH":"2021-08-26T12:59:04.748352","MEAN_MOTION_DOT":"0.00001471","LAUNCH_DATE":"2021-04-29","SEMIMAJOR_AXIS":"6925.364","TLE_LINE1":"1 48327U 21036BD  21238.54102718  .00001471  00000-0  11761-3 0  9992","MEAN_ELEMENT_THEORY":"SGP4","PERIOD":"95.592","APOAPSIS":"548.186","EPHEMERIS_TYPE":"0","REF_FRAME":"TEME","RCS_SIZE":"LARGE","CLASSIFICATION_TYPE":"U","TLE_LINE2":"2 48327  53.0559 336.3442 0001381 136.8990 223.2107 15.06394926 18413"},{"MEAN_MOTION":"15.06400769","CENTER_NAME":"EARTH","PERIAPSIS":"546.598","RA_OF_ASC_NODE":"336.3618","OBJECT_ID":"2021-036BE","TIME_SYSTEM":"UTC","BSTAR":"0.00009401200000","REV_AT_EPOCH":"1841","OBJECT_NAME":"STARLINK-2504","INCLINATION":"53.0561","COUNTRY_CODE":"US","RCS_SIZE":"LARGE","REF_FRAME":"TEME","CLASSIFICATION_TYPE":"U","TLE_LINE2":"2 48328  53.0561 336.3618 0000885 118.0088 242.0991 15.06400769 18413","PERIOD":"95.592","EPHEMERIS_TYPE":"0","APOAPSIS":"547.824","TLE_LINE1":"1 48328U 21036BE  21238.53732540  .00001119  00000-0  94012-4 0  9994","MEAN_ELEMENT_THEORY":"SGP4","SEMIMAJOR_AXIS":"6925.346","LAUNCH_DATE":"2021-04-29","EPOCH":"2021-08-26T12:53:44.914560","MEAN_MOTION_DOT":"0.00001119","DECAY_DATE":null,"OBJECT_TYPE":"PAYLOAD","FILE":"3103463","SITE":"AFETR","GP_ID":"183475655","MEAN_ANOMALY":"242.0991","ARG_OF_PERICENTER":"118.0088","ECCENTRICITY":"0.00008850","NORAD_CAT_ID":"48328","MEAN_MOTION_DDOT":"0.0000000000000","ELEMENT_SET_NO":"999"},{"RA_OF_ASC_NODE":"336.3806","PERIAPSIS":"546.722","CENTER_NAME":"EARTH","MEAN_MOTION":"15.06397856","COUNTRY_CODE":"US","INCLINATION":"53.0566","OBJECT_NAME":"STARLINK-2510","REV_AT_EPOCH":"1841","BSTAR":"0.00008938500000","TIME_SYSTEM":"UTC","OBJECT_ID":"2021-036BF","LAUNCH_DATE":"2021-04-29","SEMIMAJOR_AXIS":"6925.355","TLE_LINE1":"1 48329U 21036BF  21238.53364669  .00001050  00000-0  89385-4 0  9999","MEAN_ELEMENT_THEORY":"SGP4","APOAPSIS":"547.719","EPHEMERIS_TYPE":"0","PERIOD":"95.592","CLASSIFICATION_TYPE":"U","TLE_LINE2":"2 48329  53.0566 336.3806 0000720 118.9023 241.2039 15.06397856 18410","REF_FRAME":"TEME","RCS_SIZE":"LARGE","MEAN_MOTION_DDOT":"0.0000000000000","ELEMENT_SET_NO":"999","NORAD_CAT_ID":"48329","ECCENTRICITY":"0.00007200","ARG_OF_PERICENTER":"118.9023","GP_ID":"183475495","MEAN_ANOMALY":"241.2039","SITE":"AFETR","FILE":"3103463","OBJECT_TYPE":"PAYLOAD","DECAY_DATE":null,"MEAN_MOTION_DOT":"0.00001050","EPOCH":"2021-08-26T12:48:27.074016"},{"INCLINATION":"53.0569","OBJECT_NAME":"STARLINK-2501","COUNTRY_CODE":"US","TIME_SYSTEM":"UTC","OBJECT_ID":"2021-036BG","BSTAR":"-0.00002865800000","REV_AT_EPOCH":"1842","RA_OF_ASC_NODE":"336.1025","MEAN_MOTION":"15.06392578","CENTER_NAME":"EARTH","PERIAPSIS":"546.500","ARG_OF_PERICENTER":"127.4980","ECCENTRICITY":"0.00010630","FILE":"3103480","SITE":"AFETR","GP_ID":"183498973","MEAN_ANOMALY":"232.6106","ELEMENT_SET_NO":"999","MEAN_MOTION_DDOT":"0.0000000000000","NORAD_CAT_ID":"48330","MEAN_MOTION_DOT":"-0.00000708","EPOCH":"2021-08-26T14:18:40.243104","OBJECT_TYPE":"PAYLOAD","DECAY_DATE":null,"TLE_LINE1":"1 48330U 21036BG  21238.59629911 -.00000708  00000-0 -28658-4 0  9998","MEAN_ELEMENT_THEORY":"SGP4","SEMIMAJOR_AXIS":"6925.371","LAUNCH_DATE":"2021-04-29","TLE_LINE2":"2 48330  53.0569 336.1025 0001063 127.4980 232.6106 15.06392578 18420","CLASSIFICATION_TYPE":"U","RCS_SIZE":"LARGE","REF_FRAME":"TEME","EPHEMERIS_TYPE":"0","APOAPSIS":"547.972","PERIOD":"95.593"},{"MEAN_MOTION_DDOT":"0.0000000000000","ELEMENT_SET_NO":"999","NORAD_CAT_ID":"48331","ECCENTRICITY":"0.00009070","ARG_OF_PERICENTER":"135.0703","MEAN_ANOMALY":"225.0359","GP_ID":"183498880","SITE":"AFETR","FILE":"3103480","OBJECT_TYPE":"PAYLOAD","DECAY_DATE":null,"MEAN_MOTION_DOT":"0.00000948","EPOCH":"2021-08-26T14:13:22.491552","LAUNCH_DATE":"2021-04-29","SEMIMAJOR_AXIS":"6925.367","MEAN_ELEMENT_THEORY":"SGP4","TLE_LINE1":"1 48331U 21036BH  21238.59262143  .00000948  00000-0  82558-4 0  9992","APOAPSIS":"547.860","EPHEMERIS_TYPE":"0","PERIOD":"95.593","TLE_LINE2":"2 48331  53.0566 336.1156 0000907 135.0703 225.0359 15.06394073 18425","CLASSIFICATION_TYPE":"U","REF_FRAME":"TEME","RCS_SIZE":"LARGE","COUNTRY_CODE":"US","INCLINATION":"53.0566","OBJECT_NAME":"STARLINK-2514","REV_AT_EPOCH":"1842","BSTAR":"0.00008255800000","TIME_SYSTEM":"UTC","OBJECT_ID":"2021-036BH","RA_OF_ASC_NODE":"336.1156","PERIAPSIS":"546.604","CENTER_NAME":"EARTH","MEAN_MOTION":"15.06394073"},{"RA_OF_ASC_NODE":"336.1340","PERIAPSIS":"546.630","CENTER_NAME":"EARTH","MEAN_MOTION":"15.06404344","COUNTRY_CODE":"US","INCLINATION":"53.0564","OBJECT_NAME":"STARLINK-2511","REV_AT_EPOCH":"1842","BSTAR":"0.00010147000000","TIME_SYSTEM":"UTC","OBJECT_ID":"2021-036BJ","LAUNCH_DATE":"2021-04-29","SEMIMAJOR_AXIS":"6925.335","MEAN_ELEMENT_THEORY":"SGP4","TLE_LINE1":"1 48332U 21036BJ  21238.58891903  .00001231  00000-0  10147-3 0  9994","APOAPSIS":"547.771","EPHEMERIS_TYPE":"0","PERIOD":"95.592","CLASSIFICATION_TYPE":"U","TLE_LINE2":"2 48332  53.0564 336.1340 0000824 133.0022 227.1036 15.06404344 18427","REF_FRAME":"TEME","RCS_SIZE":"LARGE","MEAN_MOTION_DDOT":"0.0000000000000","ELEMENT_SET_NO":"999","NORAD_CAT_ID":"48332","ECCENTRICITY":"0.00008240","ARG_OF_PERICENTER":"133.0022","GP_ID":"183498726","SITE":"AFETR","MEAN_ANOMALY":"227.1036","FILE":"3103480","OBJECT_TYPE":"PAYLOAD","DECAY_DATE":null,"MEAN_MOTION_DOT":"0.00001231","EPOCH":"2021-08-26T14:08:02.604192"},{"MEAN_MOTION":"15.06395803","PERIAPSIS":"546.439","CENTER_NAME":"EARTH","RA_OF_ASC_NODE":"336.1527","TIME_SYSTEM":"UTC","OBJECT_ID":"2021-036BK","REV_AT_EPOCH":"1842","BSTAR":"0.00011246000000","INCLINATION":"53.0586","OBJECT_NAME":"STARLINK-2518","COUNTRY_CODE":"US","CLASSIFICATION_TYPE":"U","TLE_LINE2":"2 48333  53.0586 336.1527 0001137 127.1690 232.9403 15.06395803 18423","REF_FRAME":"TEME","RCS_SIZE":"LARGE","APOAPSIS":"548.014","EPHEMERIS_TYPE":"0","PERIOD":"95.592","MEAN_ELEMENT_THEORY":"SGP4","TLE_LINE1":"1 48333U 21036BK  21238.58524672  .00001394  00000-0  11246-3 0  9992","LAUNCH_DATE":"2021-04-29","SEMIMAJOR_AXIS":"6925.361","MEAN_MOTION_DOT":"0.00001394","EPOCH":"2021-08-26T14:02:45.316608","OBJECT_TYPE":"PAYLOAD","DECAY_DATE":null,"ECCENTRICITY":"0.00011370","ARG_OF_PERICENTER":"127.1690","GP_ID":"183498787","MEAN_ANOMALY":"232.9403","SITE":"AFETR","FILE":"3103480","ELEMENT_SET_NO":"999","MEAN_MOTION_DDOT":"0.0000000000000","NORAD_CAT_ID":"48333"},{"APOAPSIS":"547.929","EPHEMERIS_TYPE":"0","PERIOD":"95.593","TLE_LINE2":"2 48334  53.0613 336.1616 0001006 134.8918 225.2153 15.06393780 18426","CLASSIFICATION_TYPE":"U","REF_FRAME":"TEME","RCS_SIZE":"LARGE","LAUNCH_DATE":"2021-04-29","SEMIMAJOR_AXIS":"6925.368","MEAN_ELEMENT_THEORY":"SGP4","TLE_LINE1":"1 48334U 21036BL  21238.58155963  .00000789  00000-0  71866-4 0  9998","OBJECT_TYPE":"PAYLOAD","DECAY_DATE":null,"MEAN_MOTION_DOT":"0.00000789","EPOCH":"2021-08-26T13:57:26.752032","ELEMENT_SET_NO":"999","MEAN_MOTION_DDOT":"0.0000000000000","NORAD_CAT_ID":"48334","ECCENTRICITY":"0.00010060","ARG_OF_PERICENTER":"134.8918","MEAN_ANOMALY":"225.2153","GP_ID":"183498633","SITE":"AFETR","FILE":"3103480","PERIAPSIS":"546.536","CENTER_NAME":"EARTH","MEAN_MOTION":"15.06393780","RA_OF_ASC_NODE":"336.1616","REV_AT_EPOCH":"1842","BSTAR":"0.00007186600000","TIME_SYSTEM":"UTC","OBJECT_ID":"2021-036BL","COUNTRY_CODE":"US","INCLINATION":"53.0613","OBJECT_NAME":"STARLINK-2470"},{"OBJECT_NAME":"STARLINK-2441","INCLINATION":"53.0622","COUNTRY_CODE":"US","OBJECT_ID":"2021-036BM","TIME_SYSTEM":"UTC","BSTAR":"-0.00005102200000","REV_AT_EPOCH":"1842","RA_OF_ASC_NODE":"336.1701","MEAN_MOTION":"15.06390934","CENTER_NAME":"EARTH","PERIAPSIS":"546.479","FILE":"3103463","MEAN_ANOMALY":"244.6850","GP_ID":"183475562","SITE":"AFETR","ARG_OF_PERICENTER":"115.4254","ECCENTRICITY":"0.00011010","NORAD_CAT_ID":"48335","MEAN_MOTION_DDOT":"0.0000000000000","ELEMENT_SET_NO":"999","EPOCH":"2021-08-26T13:52:07.998240","MEAN_MOTION_DOT":"-0.00001041","DECAY_DATE":null,"OBJECT_TYPE":"PAYLOAD","MEAN_ELEMENT_THEORY":"SGP4","TLE_LINE1":"1 48335U 21036BM  21238.57787035 -.00001041  00000-0 -51022-4 0  9995","SEMIMAJOR_AXIS":"6925.376","LAUNCH_DATE":"2021-04-29","RCS_SIZE":"LARGE","REF_FRAME":"TEME","CLASSIFICATION_TYPE":"U","TLE_LINE2":"2 48335  53.0622 336.1701 0001101 115.4254 244.6850 15.06390934 18423","PERIOD":"95.593","EPHEMERIS_TYPE":"0","APOAPSIS":"548.004"},{"MEAN_MOTION":"15.06394934","PERIAPSIS":"546.737","CENTER_NAME":"EARTH","RA_OF_ASC_NODE":"235.5720","OBJECT_ID":"2021-038A","TIME_SYSTEM":"UTC","REV_AT_EPOCH":"1743","BSTAR":"0.00004946400000","OBJECT_NAME":"STARLINK-2613","INCLINATION":"53.0557","COUNTRY_CODE":"US","REF_FRAME":"TEME","RCS_SIZE":"LARGE","CLASSIFICATION_TYPE":"U","TLE_LINE2":"2 48353  53.0557 235.5720 0000711  14.0479 346.0530 15.06394934 17438","PERIOD":"95.592","APOAPSIS":"547.721","EPHEMERIS_TYPE":"0","MEAN_ELEMENT_THEORY":"SGP4","TLE_LINE1":"1 48353U 21038A   21238.71609630  .00000456  00000-0  49464-4 0  9991","LAUNCH_DATE":"2021-05-04","SEMIMAJOR_AXIS":"6925.364","EPOCH":"2021-08-26T17:11:10.720320","MEAN_MOTION_DOT":"0.00000456","DECAY_DATE":null,"OBJECT_TYPE":"PAYLOAD","GP_ID":"183498789","MEAN_ANOMALY":"346.0530","SITE":"AFETR","FILE":"3103480","ECCENTRICITY":"0.00007110","ARG_OF_PERICENTER":"14.0479","NORAD_CAT_ID":"48353","MEAN_MOTION_DDOT":"0.0000000000000","ELEMENT_SET_NO":"999"}];
